[{"OBJECT_NAME":"KUIPER-00102","OBJECT_ID":"2025-171J","EPOCH":"2026-03-06T07:20:50.345664","MEAN_MOTION":14.80007137,"ECCENTRICITY":6.147e-5,"INCLINATION":51.8982,"RA_OF_ASC_NODE":168.039,"ARG_OF_PERICENTER":92.1108,"MEAN_ANOMALY":267.9925,"EPHEMERIS_TYPE":0,"CLASSIFICATION_TYPE":"U","NORAD_CAT_ID":65140,"ELEMENT_SET_NO":999,"REV_AT_EPOCH":3245,"BSTAR":0.00083888375,"MEAN_MOTION_DOT":6.191e-5,"MEAN_MOTION_DDOT":0},{"OBJECT_NAME":"KUIPER-00103","OBJECT_ID":"2025-171K","EPOCH":"2026-03-06T14:11:27.811968","MEAN_MOTION":14.79911828,"ECCENTRICITY":0.00019244,"INCLINATION":51.8992,"RA_OF_ASC_NODE":184.2705,"ARG_OF_PERICENTER":120.4584,"MEAN_ANOMALY":239.6569,"EPHEMERIS_TYPE":0,"CLASSIFICATION_TYPE":"U","NORAD_CAT_ID":65141,"ELEMENT_SET_NO":999,"REV_AT_EPOCH":3225,"BSTAR":2.4390097e-5,"MEAN_MOTION_DOT":-3.6e-7,"MEAN_MOTION_DDOT":0},{"OBJECT_NAME":"KUIPER-00104","OBJECT_ID":"2025-171L","EPOCH":"2026-03-06T06:24:35.863200","MEAN_MOTION":14.79897157,"ECCENTRICITY":6.864e-5,"INCLINATION":51.9027,"RA_OF_ASC_NODE":173.1666,"ARG_OF_PERICENTER":61.9924,"MEAN_ANOMALY":298.1108,"EPHEMERIS_TYPE":0,"CLASSIFICATION_TYPE":"U","NORAD_CAT_ID":65142,"ELEMENT_SET_NO":999,"REV_AT_EPOCH":3238,"BSTAR":-0.00023520022,"MEAN_MOTION_DOT":-2.012e-5,"MEAN_MOTION_DDOT":0},{"OBJECT_NAME":"KUIPER-00105","OBJECT_ID":"2025-171M","EPOCH":"2026-03-06T13:30:17.510688","MEAN_MOTION":14.7985034,"ECCENTRICITY":0.00013704,"INCLINATION":51.8997,"RA_OF_ASC_NODE":179.4783,"ARG_OF_PERICENTER":96.6471,"MEAN_ANOMALY":263.4647,"EPHEMERIS_TYPE":0,"CLASSIFICATION_TYPE":"U","NORAD_CAT_ID":65143,"ELEMENT_SET_NO":999,"REV_AT_EPOCH":3232,"BSTAR":0.00093414337,"MEAN_MOTION_DOT":6.893e-5,"MEAN_MOTION_DDOT":0},{"OBJECT_NAME":"KUIPER-00106","OBJECT_ID":"2025-171N","EPOCH":"2026-03-06T13:45:00.916992","MEAN_MOTION":14.97173163,"ECCENTRICITY":0.00079957,"INCLINATION":51.8925,"RA_OF_ASC_NODE":169.1342,"ARG_OF_PERICENTER":89.0039,"MEAN_ANOMALY":271.1846,"EPHEMERIS_TYPE":0,"CLASSIFICATION_TYPE":"U","NORAD_CAT_ID":65144,"ELEMENT_SET_NO":999,"REV_AT_EPOCH":3247,"BSTAR":0.00056945772,"MEAN_MOTION_DOT":6.402e-5,"MEAN_MOTION_DDOT":0},{"OBJECT_NAME":"KUIPER-00107","OBJECT_ID":"2025-171P","EPOCH":"2026-03-05T13:39:09.774432","MEAN_MOTION":14.80005909,"ECCENTRICITY":3.08e-5,"INCLINATION":51.9009,"RA_OF_ASC_NODE":166.315,"ARG_OF_PERICENTER":28.6535,"MEAN_ANOMALY":331.4444,"EPHEMERIS_TYPE":0,"CLASSIFICATION_TYPE":"U","NORAD_CAT_ID":65145,"ELEMENT_SET_NO":999,"REV_AT_EPOCH":3242,"BSTAR":0.0010058,"MEAN_MOTION_DOT":7.468e-5,"MEAN_MOTION_DDOT":0},{"OBJECT_NAME":"KUIPER-00108","OBJECT_ID":"2025-171Q","EPOCH":"2026-03-06T14:27:00.685728","MEAN_MOTION":14.79927127,"ECCENTRICITY":9.725e-5,"INCLINATION":51.9032,"RA_OF_ASC_NODE":174.2621,"ARG_OF_PERICENTER":160.0521,"MEAN_ANOMALY":200.048,"EPHEMERIS_TYPE":0,"CLASSIFICATION_TYPE":"U","NORAD_CAT_ID":65146,"ELEMENT_SET_NO":999,"REV_AT_EPOCH":3240,"BSTAR":0.00014397351,"MEAN_MOTION_DOT":8.76e-6,"MEAN_MOTION_DDOT":0},{"OBJECT_NAME":"KUIPER-00109","OBJECT_ID":"2025-171R","EPOCH":"2026-03-06T13:46:08.232960","MEAN_MOTION":14.79933449,"ECCENTRICITY":5.126e-5,"INCLINATION":51.9005,"RA_OF_ASC_NODE":169.3281,"ARG_OF_PERICENTER":89.2294,"MEAN_ANOMALY":270.8727,"EPHEMERIS_TYPE":0,"CLASSIFICATION_TYPE":"U","NORAD_CAT_ID":65147,"ELEMENT_SET_NO":999,"REV_AT_EPOCH":3246,"BSTAR":0.00024179207,"MEAN_MOTION_DOT":1.623e-5,"MEAN_MOTION_DDOT":0},{"OBJECT_NAME":"KUIPER-00110","OBJECT_ID":"2025-171S","EPOCH":"2026-03-07T00:00:20.735136","MEAN_MOTION":14.79951868,"ECCENTRICITY":0.0001853,"INCLINATION":51.9003,"RA_OF_ASC_NODE":180.0409,"ARG_OF_PERICENTER":181.0366,"MEAN_ANOMALY":179.0593,"EPHEMERIS_TYPE":0,"CLASSIFICATION_TYPE":"U","NORAD_CAT_ID":65148,"ELEMENT_SET_NO":999,"REV_AT_EPOCH":3234,"BSTAR":0.00079574,"MEAN_MOTION_DOT":5.853e-5,"MEAN_MOTION_DDOT":0},{"OBJECT_NAME":"KUIPER-00111","OBJECT_ID":"2025-171T","EPOCH":"2026-03-07T00:39:09.210816","MEAN_MOTION":14.8004327,"ECCENTRICITY":0.0001797,"INCLINATION":51.8976,"RA_OF_ASC_NODE":184.8186,"ARG_OF_PERICENTER":143.5186,"MEAN_ANOMALY":216.5899,"EPHEMERIS_TYPE":0,"CLASSIFICATION_TYPE":"U","NORAD_CAT_ID":65149,"ELEMENT_SET_NO":999,"REV_AT_EPOCH":3228,"BSTAR":0.00078493,"MEAN_MOTION_DOT":5.783e-5,"MEAN_MOTION_DDOT":0},{"OBJECT_NAME":"KUIPER-00112","OBJECT_ID":"2025-171U","EPOCH":"2026-03-06T12:57:26.707680","MEAN_MOTION":14.80018328,"ECCENTRICITY":2.283e-5,"INCLINATION":51.9027,"RA_OF_ASC_NODE":169.533,"ARG_OF_PERICENTER":71.6977,"MEAN_ANOMALY":288.401,"EPHEMERIS_TYPE":0,"CLASSIFICATION_TYPE":"U","NORAD_CAT_ID":65150,"ELEMENT_SET_NO":999,"REV_AT_EPOCH":3245,"BSTAR":0.00092007562,"MEAN_MOTION_DOT":6.814e-5,"MEAN_MOTION_DDOT":0},{"OBJECT_NAME":"KUIPER-00114","OBJECT_ID":"2025-171V","EPOCH":"2026-03-06T08:23:20.940288","MEAN_MOTION":14.79924345,"ECCENTRICITY":0.0001131,"INCLINATION":51.9003,"RA_OF_ASC_NODE":190.3731,"ARG_OF_PERICENTER":135.9347,"MEAN_ANOMALY":224.1705,"EPHEMERIS_TYPE":0,"CLASSIFICATION_TYPE":"U","NORAD_CAT_ID":65151,"ELEMENT_SET_NO":999,"REV_AT_EPOCH":3214,"BSTAR":0.00051969384,"MEAN_MOTION_DOT":3.742e-5,"MEAN_MOTION_DDOT":0},{"OBJECT_NAME":"KUIPER-00115","OBJECT_ID":"2025-171W","EPOCH":"2026-03-06T15:03:45.008064","MEAN_MOTION":14.79950936,"ECCENTRICITY":0.00012718,"INCLINATION":51.9008,"RA_OF_ASC_NODE":181.6266,"ARG_OF_PERICENTER":48.6301,"MEAN_ANOMALY":311.4771,"EPHEMERIS_TYPE":0,"CLASSIFICATION_TYPE":"U","NORAD_CAT_ID":65152,"ELEMENT_SET_NO":999,"REV_AT_EPOCH":3229,"BSTAR":0.00065377211,"MEAN_MOTION_DOT":4.768e-5,"MEAN_MOTION_DDOT":0},{"OBJECT_NAME":"KUIPER-00116","OBJECT_ID":"2025-171X","EPOCH":"2026-03-05T15:26:08.964384","MEAN_MOTION":14.79931574,"ECCENTRICITY":0.00010731,"INCLINATION":51.8999,"RA_OF_ASC_NODE":191.0223,"ARG_OF_PERICENTER":131.9516,"MEAN_ANOMALY":228.1538,"EPHEMERIS_TYPE":0,"CLASSIFICATION_TYPE":"U","NORAD_CAT_ID":65153,"ELEMENT_SET_NO":999,"REV_AT_EPOCH":3207,"BSTAR":0.00097273208,"MEAN_MOTION_DOT":7.202e-5,"MEAN_MOTION_DDOT":0},{"OBJECT_NAME":"KUIPER-00118","OBJECT_ID":"2025-171Y","EPOCH":"2026-03-07T01:23:53.940480","MEAN_MOTION":14.80037745,"ECCENTRICITY":6.13e-5,"INCLINATION":51.8998,"RA_OF_ASC_NODE":187.2178,"ARG_OF_PERICENTER":77.9795,"MEAN_ANOMALY":282.1236,"EPHEMERIS_TYPE":0,"CLASSIFICATION_TYPE":"U","NORAD_CAT_ID":65154,"ELEMENT_SET_NO":999,"REV_AT_EPOCH":3225,"BSTAR":0.00081374,"MEAN_MOTION_DOT":6.003e-5,"MEAN_MOTION_DDOT":0},{"OBJECT_NAME":"KUIPER-00119","OBJECT_ID":"2025-171Z","EPOCH":"2026-03-06T07:54:01.621152","MEAN_MOTION":14.79999385,"ECCENTRICITY":0.00010513,"INCLINATION":51.9008,"RA_OF_ASC_NODE":178.0294,"ARG_OF_PERICENTER":141.8268,"MEAN_ANOMALY":218.2769,"EPHEMERIS_TYPE":0,"CLASSIFICATION_TYPE":"U","NORAD_CAT_ID":65155,"ELEMENT_SET_NO":999,"REV_AT_EPOCH":3231,"BSTAR":0.00084952084,"MEAN_MOTION_DOT":6.271e-5,"MEAN_MOTION_DDOT":0},{"OBJECT_NAME":"KUIPER-00120","OBJECT_ID":"2025-217A","EPOCH":"2026-03-07T04:10:12.438048","MEAN_MOTION":14.799362,"ECCENTRICITY":5.29e-5,"INCLINATION":51.8989,"RA_OF_ASC_NODE":64.1936,"ARG_OF_PERICENTER":92.5281,"MEAN_ANOMALY":267.5741,"EPHEMERIS_TYPE":0,"CLASSIFICATION_TYPE":"U","NORAD_CAT_ID":65762,"ELEMENT_SET_NO":999,"REV_AT_EPOCH":2436,"BSTAR":-0.00092254,"MEAN_MOTION_DOT":-7.247e-5,"MEAN_MOTION_DDOT":0}]
